IRIDIUM 166             
1 43570U 18061B   24352.51914970  .00000644  00000+0  22275-3 0  9991
2 43570  86.3961 285.1684 0001858  87.3646 272.7762 14.34221845335046
IRIDIUM 158             
1 43571U 18061C   24352.55720268  .00000376  00000+0  12712-3 0  9998
2 43571  86.3959 285.1620 0002068  77.7575 282.3852 14.34219941335010
IRIDIUM 165             
1 43572U 18061D   24352.58257470  .00000138  00000+0  42170-4 0  9990
2 43572  86.3963 285.1875 0002209  87.4626 272.6823 14.34218521335046
IRIDIUM 155             
1 43573U 18061E   24352.54451656  .00000432  00000+0  14727-3 0  9992
2 43573  86.3958 285.0994 0001877  79.8670 280.2738 14.34220335335008
IRIDIUM 154             
1 43574U 18061F   24352.52548471  .00000639  00000+0  22117-3 0  9994
2 43574  86.3964 285.2140 0002252  85.5965 274.5488 14.34219636335055
IRIDIUM 163             
1 43575U 18061G   24352.57623219  .00000127  00000+0  38168-4 0  9990
2 43575  86.3961 285.1253 0002113  80.3569 279.7866 14.34218436335038
IRIDIUM 156             
1 43576U 18061H   24352.34155827  .00000594  00000+0  20514-3 0  9994
2 43576  86.3958 285.2301 0001854  83.0441 277.0966 14.34213431334996
IRIDIUM 164             
1 43577U 18061J   24352.53183116  .00000676  00000+0  23419-3 0  9996
2 43577  86.3961 285.1822 0002150  91.9937 268.1505 14.34221643335069
